{"type":"FeatureCollection","features":[{"type":"Feature","geometry":{"type":"Point","coordinates":[2.16075,41.39802]},"properties":{"id":"barcelona","name":"Barcelona","country":"ES","isStudy":true,"cdi":0.087,"population":1608693}},{"type":"Feature","geometry":{"type":"Point","coordinates":[13.4032,52.50437]},"properties":{"id":"berlin","name":"Berlin","country":"DE","isStudy":true,"cdi":0.195,"population":3482138}},{"type":"Feature","geometry":{"type":"Point","coordinates":[-0.57778,44.84368]},"properties":{"id":"bordeaux","name":"Bordeaux","country":"FR","isStudy":true,"cdi":0.053,"population":251045}},{"type":"Feature","geometry":{"type":"Point","coordinates":[-71.09007,42.3233]},"properties":{"id":"boston","name":"Boston","country":"US","isStudy":true,"cdi":0.223,"population":615409}},{"type":"Feature","geometry":{"type":"Point","coordinates":[-87.68386,41.86533]},"properties":{"id":"chicago","name":"Chicago","country":"US","isStudy":true,"cdi":0.27,"population":2504511}},{"type":"Feature","geometry":{"type":"Point","coordinates":[11.24518,43.77931]},"properties":{"id":"florence","name":"Florence","country":"IT","isStudy":true,"cdi":0.414,"population":348792}},{"type":"Feature","geometry":{"type":"Point","coordinates":[8.40205,49.01081]},"properties":{"id":"karlsruhe","name":"Karlsruhe","country":"DE","isStudy":true,"cdi":0.202,"population":323592}},{"type":"Feature","geometry":{"type":"Point","coordinates":[9.17987,45.47426]},"properties":{"id":"milan","name":"Milan","country":"IT","isStudy":true,"cdi":0.063,"population":1201023}},{"type":"Feature","geometry":{"type":"Point","coordinates":[11.55614,48.14381]},"properties":{"id":"munich","name":"Munich","country":"DE","isStudy":true,"cdi":0.102,"population":1606031}},{"type":"Feature","geometry":{"type":"Point","coordinates":[-4.45463,36.7129]},"properties":{"id":"malaga","name":"Málaga","country":"ES","isStudy":true,"cdi":0.31,"population":595659}},{"type":"Feature","geometry":{"type":"Point","coordinates":[-1.55358,47.22516]},"properties":{"id":"nantes","name":"Nantes","country":"FR","isStudy":true,"cdi":0.013,"population":276956}},{"type":"Feature","geometry":{"type":"Point","coordinates":[-73.92293,40.72503]},"properties":{"id":"new-york","name":"New York","country":"US","isStudy":true,"cdi":0.241,"population":8038108}},{"type":"Feature","geometry":{"type":"Point","coordinates":[2.34577,48.86051]},"properties":{"id":"paris","name":"Paris","country":"FR","isStudy":true,"cdi":-0.111,"population":2269189}},{"type":"Feature","geometry":{"type":"Point","coordinates":[-8.62145,41.16225]},"properties":{"id":"porto","name":"Porto","country":"PT","isStudy":true,"cdi":0.091,"population":230048}},{"type":"Feature","geometry":{"type":"Point","coordinates":[12.49368,41.88207]},"properties":{"id":"rome","name":"Rome","country":"IT","isStudy":true,"cdi":0.335,"population":2610166}},{"type":"Feature","geometry":{"type":"Point","coordinates":[-122.33241,47.62875]},"properties":{"id":"seattle","name":"Seattle","country":"US","isStudy":true,"cdi":0.188,"population":643867}},{"type":"Feature","geometry":{"type":"Point","coordinates":[18.01134,59.32144]},"properties":{"id":"stockholm","name":"Stockholm","country":"SE","isStudy":true,"cdi":0.094,"population":996902}},{"type":"Feature","geometry":{"type":"Point","coordinates":[-0.37262,39.46653]},"properties":{"id":"valencia","name":"Valencia","country":"ES","isStudy":true,"cdi":0.102,"population":770448}},{"type":"Feature","geometry":{"type":"Point","coordinates":[16.3743,48.20471]},"properties":{"id":"vienna","name":"Vienna","country":"AT","isStudy":true,"cdi":0.129,"population":1920660}},{"type":"Feature","geometry":{"type":"Point","coordinates":[8.52928,47.38479]},"properties":{"id":"zurich","name":"Zurich","country":"CH","isStudy":true,"cdi":-0.02,"population":404151}}]}