{"type":"FeatureCollection","features":[{"type":"Feature","geometry":{"type":"Point","coordinates":[2.16075,41.39802]},"properties":{"id":"barcelona","name":"Barcelona","country":"ES","isStudy":true,"zone":0,"population":1608684,"inclusionShare":31.5}},{"type":"Feature","geometry":{"type":"Point","coordinates":[13.4032,52.50437]},"properties":{"id":"berlin","name":"Berlin","country":"DE","isStudy":true,"zone":0,"population":3482152,"inclusionShare":30.1}},{"type":"Feature","geometry":{"type":"Point","coordinates":[-0.57778,44.84368]},"properties":{"id":"bordeaux","name":"Bordeaux","country":"FR","isStudy":true,"zone":0,"population":251048,"inclusionShare":28.2}},{"type":"Feature","geometry":{"type":"Point","coordinates":[-87.68386,41.86533]},"properties":{"id":"chicago","name":"Chicago","country":"US","isStudy":true,"zone":0,"population":2504515,"inclusionShare":32}},{"type":"Feature","geometry":{"type":"Point","coordinates":[8.40205,49.01081]},"properties":{"id":"karlsruhe","name":"Karlsruhe","country":"DE","isStudy":true,"zone":0,"population":323609,"inclusionShare":24}},{"type":"Feature","geometry":{"type":"Point","coordinates":[-4.45463,36.7129]},"properties":{"id":"malaga","name":"Málaga","country":"ES","isStudy":true,"zone":0,"population":595671,"inclusionShare":15.9}},{"type":"Feature","geometry":{"type":"Point","coordinates":[9.17987,45.47426]},"properties":{"id":"milan","name":"Milan","country":"IT","isStudy":true,"zone":0,"population":1201028,"inclusionShare":23.2}},{"type":"Feature","geometry":{"type":"Point","coordinates":[11.55614,48.14381]},"properties":{"id":"munich","name":"Munich","country":"DE","isStudy":true,"zone":0,"population":1606059,"inclusionShare":29.8}},{"type":"Feature","geometry":{"type":"Point","coordinates":[-1.55358,47.22516]},"properties":{"id":"nantes","name":"Nantes","country":"FR","isStudy":true,"zone":0,"population":276965,"inclusionShare":24.3}},{"type":"Feature","geometry":{"type":"Point","coordinates":[-73.92293,40.72503]},"properties":{"id":"new-york","name":"New York","country":"US","isStudy":true,"zone":0,"population":8038165,"inclusionShare":22.9}},{"type":"Feature","geometry":{"type":"Point","coordinates":[2.34577,48.86051]},"properties":{"id":"paris","name":"Paris","country":"FR","isStudy":true,"zone":0,"population":2269192,"inclusionShare":36.9}},{"type":"Feature","geometry":{"type":"Point","coordinates":[-8.62145,41.16225]},"properties":{"id":"porto","name":"Porto","country":"PT","isStudy":true,"zone":0,"population":230046,"inclusionShare":37.5}},{"type":"Feature","geometry":{"type":"Point","coordinates":[12.49368,41.88207]},"properties":{"id":"rome","name":"Rome","country":"IT","isStudy":true,"zone":0,"population":2610243,"inclusionShare":12.9}},{"type":"Feature","geometry":{"type":"Point","coordinates":[-122.33241,47.62875]},"properties":{"id":"seattle","name":"Seattle","country":"US","isStudy":true,"zone":0,"population":643859,"inclusionShare":30.8}},{"type":"Feature","geometry":{"type":"Point","coordinates":[18.01135,59.32144]},"properties":{"id":"stockholm","name":"Stockholm","country":"SE","isStudy":true,"zone":0,"population":996903,"inclusionShare":23.5}},{"type":"Feature","geometry":{"type":"Point","coordinates":[-0.37262,39.46653]},"properties":{"id":"valencia","name":"Valencia","country":"ES","isStudy":true,"zone":0,"population":770439,"inclusionShare":21.2}},{"type":"Feature","geometry":{"type":"Point","coordinates":[16.3743,48.20471]},"properties":{"id":"vienna","name":"Vienna","country":"AT","isStudy":true,"zone":0,"population":1920674,"inclusionShare":25.8}},{"type":"Feature","geometry":{"type":"Point","coordinates":[8.52928,47.38479]},"properties":{"id":"zurich","name":"Zurich","country":"CH","isStudy":true,"zone":0,"population":404153,"inclusionShare":25.9}}]}